{"type": "FeatureCollection", "features": [ {"type": "Feature", "properties": {"norad_id": 66697, "name": "IRIDE FM3", "group": "last-30-days", "lat": -14.367321748947553, "lon": -113.65386389699749, "alt_km": 515.4995495708317, "timestamp": "2025-12-22T15:43:47.684489+00:00", "meta": {"OBJECT_NAME": "IRIDE FM3", "OBJECT_ID": "2025-276AH", "EPOCH": "2025-12-22T05:23:06.768096", "MEAN_MOTION": 15.18153344, "ECCENTRICITY": 0.00011699, "INCLINATION": 97.4394, "RA_OF_ASC_NODE": 67.8404, "ARG_OF_PERICENTER": 157.9013, "MEAN_ANOMALY": 202.2271, "EPHEMERIS_TYPE": 0, "CLASSIFICATION_TYPE": "U", "NORAD_CAT_ID": 66697, "ELEMENT_SET_NO": 999, "REV_AT_EPOCH": 356, "BSTAR": 0.00061232783, "MEAN_MOTION_DOT": 0.0001245, "MEAN_MOTION_DDOT": 0}, "tle": {"line1": "1 66697U 25276AH  25356.22438389  .00012450  00000+0  61233-3 0  9995", "line2": "2 66697  97.4394  67.8404 0001169 157.9013 202.2271 15.18153344  3569"}}, "geometry": {"type": "Point", "coordinates": [-113.65386389699749, -14.367321748947553]}}, {"type": "Feature", "properties": {"norad_id": 66698, "name": "IRIDE FM4", "group": "last-30-days", "lat": 53.692764777177885, "lon": -101.52037554834635, "alt_km": 510.4642604111805, "timestamp": "2025-12-22T15:43:47.684498+00:00", "meta": {"OBJECT_NAME": "IRIDE FM4", "OBJECT_ID": "2025-276AJ", "EPOCH": "2025-12-22T05:40:54.581376", "MEAN_MOTION": 15.17333242, "ECCENTRICITY": 0.00027937, "INCLINATION": 97.4394, "RA_OF_ASC_NODE": 67.8248, "ARG_OF_PERICENTER": 274.369, "MEAN_ANOMALY": 85.7224, "EPHEMERIS_TYPE": 0, "CLASSIFICATION_TYPE": "U", "NORAD_CAT_ID": 66698, "ELEMENT_SET_NO": 999, "REV_AT_EPOCH": 356, "BSTAR": 0.00095708681, "MEAN_MOTION_DOT": 0.00019062, "MEAN_MOTION_DDOT": 0}, "tle": {"line1": "1 66698U 25276AJ  25356.23674284  .00019062  00000+0  95709-3 0  9994", "line2": "2 66698  97.4394  67.8248 0002793 274.3690  85.7224 15.17333242  3563"}}, "geometry": {"type": "Point", "coordinates": [-101.52037554834635, 53.692764777177885]}}, {"type": "Feature", "properties": {"norad_id": 66699, "name": "IRIDE FM5", "group": "last-30-days", "lat": 59.57870306840094, "lon": -98.90062833688583, "alt_km": 519.5210890072831, "timestamp": "2025-12-22T15:43:47.684511+00:00", "meta": {"OBJECT_NAME": "IRIDE FM5", "OBJECT_ID": "2025-276AK", "EPOCH": "2025-12-22T02:31:17.979744", "MEAN_MOTION": 15.15481481, "ECCENTRICITY": 0.00041988, "INCLINATION": 97.4418, "RA_OF_ASC_NODE": 67.699, "ARG_OF_PERICENTER": 267.7607, "MEAN_ANOMALY": 92.3144, "EPHEMERIS_TYPE": 0, "CLASSIFICATION_TYPE": "U", "NORAD_CAT_ID": 66699, "ELEMENT_SET_NO": 999, "REV_AT_EPOCH": 354, "BSTAR": -0.056173838, "MEAN_MOTION_DOT": -0.00979316, "MEAN_MOTION_DDOT": 0}, "tle": {"line1": "1 66699U 25276AK  25356.10506921 -.00979316  00000+0 -56174-1 0  9993", "line2": "2 66699  97.4418  67.6990 0004198 267.7607  92.3144 15.15481481  3548"}}, "geometry": {"type": "Point", "coordinates": [-98.90062833688583, 59.57870306840094]}}, {"type": "Feature", "properties": {"norad_id": 66700, "name": "IRIDE FM6", "group": "last-30-days", "lat": -17.722312135337702, "lon": -114.1192220093579, "alt_km": 515.3994067227113, "timestamp": "2025-12-22T15:43:47.684520+00:00", "meta": {"OBJECT_NAME": "IRIDE FM6", "OBJECT_ID": "2025-276AL", "EPOCH": "2025-12-22T05:22:14.503872", "MEAN_MOTION": 15.18206256, "ECCENTRICITY": 0.00015598, "INCLINATION": 97.4425, "RA_OF_ASC_NODE": 67.8504, "ARG_OF_PERICENTER": 165.7709, "MEAN_ANOMALY": 194.3569, "EPHEMERIS_TYPE": 0, "CLASSIFICATION_TYPE": "U", "NORAD_CAT_ID": 66700, "ELEMENT_SET_NO": 999, "REV_AT_EPOCH": 356, "BSTAR": 0.0006279824, "MEAN_MOTION_DOT": 0.0001279, "MEAN_MOTION_DDOT": 0}, "tle": {"line1": "1 66700U 25276AL  25356.22377898  .00012790  00000+0  62798-3 0  9991", "line2": "2 66700  97.4425  67.8504 0001559 165.7709 194.3569 15.18206256  3564"}}, "geometry": {"type": "Point", "coordinates": [-114.1192220093579, -17.722312135337702]}}, {"type": "Feature", "properties": {"norad_id": 66701, "name": "IRIDE FM7", "group": "last-30-days", "lat": 52.75557537950694, "lon": -101.85354710408386, "alt_km": 510.24885994012766, "timestamp": "2025-12-22T15:43:47.684532+00:00", "meta": {"OBJECT_NAME": "IRIDE FM7", "OBJECT_ID": "2025-276AM", "EPOCH": "2025-12-22T05:40:40.034208", "MEAN_MOTION": 15.17368628, "ECCENTRICITY": 0.00030173, "INCLINATION": 97.4423, "RA_OF_ASC_NODE": 67.8344, "ARG_OF_PERICENTER": 259.3508, "MEAN_ANOMALY": 100.7386, "EPHEMERIS_TYPE": 0, "CLASSIFICATION_TYPE": "U", "NORAD_CAT_ID": 66701, "ELEMENT_SET_NO": 999, "REV_AT_EPOCH": 356, "BSTAR": 0.00063702644, "MEAN_MOTION_DOT": 0.00012667, "MEAN_MOTION_DDOT": 0}, "tle": {"line1": "1 66701U 25276AM  25356.23657447  .00012667  00000+0  63703-3 0  9994", "line2": "2 66701  97.4423  67.8344 0003017 259.3508 100.7386 15.17368628  3562"}}, "geometry": {"type": "Point", "coordinates": [-101.85354710408386, 52.75557537950694]}}, {"type": "Feature", "properties": {"norad_id": 66702, "name": "IRIDE FM8", "group": "last-30-days", "lat": 51.809955048048934, "lon": -102.19849446680615, "alt_km": 510.44867044048533, "timestamp": "2025-12-22T15:43:47.684542+00:00", "meta": {"OBJECT_NAME": "IRIDE FM8", "OBJECT_ID": "2025-276AN", "EPOCH": "2025-12-22T05:40:25.040352", "MEAN_MOTION": 15.17378148, "ECCENTRICITY": 0.00028628, "INCLINATION": 97.4402, "RA_OF_ASC_NODE": 67.8273, "ARG_OF_PERICENTER": 267.2925, "MEAN_ANOMALY": 92.7981, "EPHEMERIS_TYPE": 0, "CLASSIFICATION_TYPE": "U", "NORAD_CAT_ID": 66702, "ELEMENT_SET_NO": 999, "REV_AT_EPOCH": 356, "BSTAR": 0.00058624341, "MEAN_MOTION_DOT": 0.00011653, "MEAN_MOTION_DDOT": 0}, "tle": {"line1": "1 66702U 25276AN  25356.23640093  .00011653  00000+0  58624-3 0  9994", "line2": "2 66702  97.4402  67.8273 0002862 267.2925  92.7981 15.17378148  3568"}}, "geometry": {"type": "Point", "coordinates": [-102.19849446680615, 51.809955048048934]}}, {"type": "Feature", "properties": {"norad_id": 66703, "name": "PELICAN-6", "group": "last-30-days", "lat": 44.8608892920637, "lon": -104.28313414536879, "alt_km": 510.4404015841428, "timestamp": "2025-12-22T15:43:47.684552+00:00", "meta": {"OBJECT_NAME": "PELICAN-6", "OBJECT_ID": "2025-276AP", "EPOCH": "2025-12-22T06:00:02.000160", "MEAN_MOTION": 15.17342085, "ECCENTRICITY": 0.00010121, "INCLINATION": 97.4406, "RA_OF_ASC_NODE": 67.8459, "ARG_OF_PERICENTER": 251.6411, "MEAN_ANOMALY": 189.9474, "EPHEMERIS_TYPE": 0, "CLASSIFICATION_TYPE": "U", "NORAD_CAT_ID": 66703, "ELEMENT_SET_NO": 999, "REV_AT_EPOCH": 471, "BSTAR": -0.00085380225, "MEAN_MOTION_DOT": -0.00017048, "MEAN_MOTION_DDOT": 0}, "tle": {"line1": "1 66703U 25276AP  25356.25002315 -.00017048  00000+0 -85380-3 0  9991", "line2": "2 66703  97.4406  67.8459 0001012 251.6411 189.9474 15.17342085  4717"}}, "geometry": {"type": "Point", "coordinates": [-104.28313414536879, 44.8608892920637]}}, {"type": "Feature", "properties": {"norad_id": 66704, "name": "FLOCK 4H-1", "group": "last-30-days", "lat": -9.982744449042796, "lon": -113.0601482591447, "alt_km": 514.7142874465872, "timestamp": "2025-12-22T15:43:47.684562+00:00", "meta": {"OBJECT_NAME": "FLOCK 4H-1", "OBJECT_ID": "2025-276AQ", "EPOCH": "2025-12-22T05:24:14.776992", "MEAN_MOTION": 15.18075725, "ECCENTRICITY": 0.00018209, "INCLINATION": 97.4388, "RA_OF_ASC_NODE": 67.8347, "ARG_OF_PERICENTER": 174.2769, "MEAN_ANOMALY": 185.8487, "EPHEMERIS_TYPE": 0, "CLASSIFICATION_TYPE": "U", "NORAD_CAT_ID": 66704, "ELEMENT_SET_NO": 999, "REV_AT_EPOCH": 356, "BSTAR": 0.00057645812, "MEAN_MOTION_DOT": 0.00011689, "MEAN_MOTION_DDOT": 0}, "tle": {"line1": "1 66704U 25276AQ  25356.22517103  .00011689  00000+0  57646-3 0  9992", "line2": "2 66704  97.4388  67.8347 0001820 174.2769 185.8487 15.18075725  3562"}}, "geometry": {"type": "Point", "coordinates": [-113.0601482591447, -9.982744449042796]}}, {"type": "Feature", "properties": {"norad_id": 66705, "name": "FLOCK 4H-2", "group": "last-30-days", "lat": -12.46267865743746, "lon": -113.39541124676764, "alt_km": 515.2942702066102, "timestamp": "2025-12-22T15:43:47.684572+00:00", "meta": {"OBJECT_NAME": "FLOCK 4H-2", "OBJECT_ID": "2025-276AR", "EPOCH": "2025-12-22T05:23:36.497472", "MEAN_MOTION": 15.18126893, "ECCENTRICITY": 0.00012372, "INCLINATION": 97.4381, "RA_OF_ASC_NODE": 67.8358, "ARG_OF_PERICENTER": 162.6106, "MEAN_ANOMALY": 197.5171, "EPHEMERIS_TYPE": 0, "CLASSIFICATION_TYPE": "U", "NORAD_CAT_ID": 66705, "ELEMENT_SET_NO": 999, "REV_AT_EPOCH": 356, "BSTAR": 0.00058124472, "MEAN_MOTION_DOT": 0.00011804, "MEAN_MOTION_DDOT": 0}, "tle": {"line1": "1 66705U 25276AR  25356.22472798  .00011804  00000+0  58124-3 0  9994", "line2": "2 66705  97.4381  67.8358 0001237 162.6106 197.5171 15.18126893  3569"}}, "geometry": {"type": "Point", "coordinates": [-113.39541124676764, -12.46267865743746]}}, {"type": "Feature", "properties": {"norad_id": 66706, "name": "FLOCK 4H-3", "group": "last-30-days", "lat": 41.13082366256675, "lon": -105.18375361017009, "alt_km": 510.958351147905, "timestamp": "2025-12-22T15:43:47.684582+00:00", "meta": {"OBJECT_NAME": "FLOCK 4H-3", "OBJECT_ID": "2025-276AS", "EPOCH": "2025-12-21T16:57:56.268864", "MEAN_MOTION": 15.17458741, "ECCENTRICITY": 0.00028638, "INCLINATION": 97.4448, "RA_OF_ASC_NODE": 67.3267, "ARG_OF_PERICENTER": 251.727, "MEAN_ANOMALY": 108.3653, "EPHEMERIS_TYPE": 0, "CLASSIFICATION_TYPE": "U", "NORAD_CAT_ID": 66706, "ELEMENT_SET_NO": 999, "REV_AT_EPOCH": 348, "BSTAR": 0.00024361547, "MEAN_MOTION_DOT": 4.811e-05, "MEAN_MOTION_DDOT": 0}, "tle": {"line1": "1 66706U 25276AS  25355.70690126  .00004811  00000+0  24362-3 0  9991", "line2": "2 66706  97.4448  67.3267 0002863 251.7270 108.3653 15.17458741  3481"}}, "geometry": {"type": "Point", "coordinates": [-105.18375361017009, 41.13082366256675]}}]}